CCSDS_OMM_VERS = 2.0
CREATION_DATE  = 
ORIGINATOR     = 

OBJECT_NAME    = UNKNOWN
OBJECT_ID      = 
CENTER_NAME    = EARTH
REF_FRAME      = TEME
TIME_SYSTEM    = UTC
MEAN_ELEMENT_THEORY = SGP/SGP4

EPOCH          = 2026-01-07T07:37:47.839584
MEAN_MOTION    = 13.09046201
ECCENTRICITY   = .0023104
INCLINATION    = 90.3388
RA_OF_ASC_NODE = 38.9894
ARG_OF_PERICENTER = 49.0777
MEAN_ANOMALY   = 311.2346

EPHEMERIS_TYPE = 0
CLASSIFICATION_TYPE = U
NORAD_CAT_ID   = 82783
ELEMENT_SET_NO = 999
REV_AT_EPOCH   = 50770
BSTAR          = .15496E-2
MEAN_MOTION_DOT = .539E-5
MEAN_MOTION_DDOT = 0

CCSDS_OMM_VERS = 2.0
CREATION_DATE  = 
ORIGINATOR     = 

OBJECT_NAME    = UNKNOWN
OBJECT_ID      = 
CENTER_NAME    = EARTH
REF_FRAME      = TEME
TIME_SYSTEM    = UTC
MEAN_ELEMENT_THEORY = SGP/SGP4

EPOCH          = 2026-01-07T04:55:01.689888
MEAN_MOTION    = 14.23046412
ECCENTRICITY   = .002935
INCLINATION    = 82.9497
RA_OF_ASC_NODE = 171.3804
ARG_OF_PERICENTER = 94.9149
MEAN_ANOMALY   = 78.4119

EPHEMERIS_TYPE = 0
CLASSIFICATION_TYPE = U
NORAD_CAT_ID   = 82798
ELEMENT_SET_NO = 999
REV_AT_EPOCH   = 31599
BSTAR          = .1099E-2
MEAN_MOTION_DOT = .2504E-4
MEAN_MOTION_DDOT = 0

CCSDS_OMM_VERS = 2.0
CREATION_DATE  = 
ORIGINATOR     = 

OBJECT_NAME    = UNKNOWN
OBJECT_ID      = 
CENTER_NAME    = EARTH
REF_FRAME      = TEME
TIME_SYSTEM    = UTC
MEAN_ELEMENT_THEORY = SGP/SGP4

EPOCH          = 2026-01-08T17:32:34.143936
MEAN_MOTION    = 14.35173939
ECCENTRICITY   = .0049344
INCLINATION    = 99.7876
RA_OF_ASC_NODE = 178.0630
ARG_OF_PERICENTER = 297.2240
MEAN_ANOMALY   = 62.3918

EPHEMERIS_TYPE = 0
CLASSIFICATION_TYPE = U
NORAD_CAT_ID   = 82820
ELEMENT_SET_NO = 999
REV_AT_EPOCH   = 62950
BSTAR          = .15821E-2
MEAN_MOTION_DOT = .4532E-4
MEAN_MOTION_DDOT = 0

CCSDS_OMM_VERS = 2.0
CREATION_DATE  = 
ORIGINATOR     = 

OBJECT_NAME    = UNKNOWN
OBJECT_ID      = 
CENTER_NAME    = EARTH
REF_FRAME      = TEME
TIME_SYSTEM    = UTC
MEAN_ELEMENT_THEORY = SGP/SGP4

EPOCH          = 2026-01-04T19:45:41.918976
MEAN_MOTION    = 13.87914813
ECCENTRICITY   = .0129665
INCLINATION    = 82.6894
RA_OF_ASC_NODE = 46.4959
ARG_OF_PERICENTER = 214.5987
MEAN_ANOMALY   = 144.6690

EPHEMERIS_TYPE = 0
CLASSIFICATION_TYPE = U
NORAD_CAT_ID   = 82854
ELEMENT_SET_NO = 999
REV_AT_EPOCH   = 61100
BSTAR          = .19044E-2
MEAN_MOTION_DOT = .2434E-4
MEAN_MOTION_DDOT = 0

CCSDS_OMM_VERS = 2.0
CREATION_DATE  = 
ORIGINATOR     = 

OBJECT_NAME    = UNKNOWN
OBJECT_ID      = 
CENTER_NAME    = EARTH
REF_FRAME      = TEME
TIME_SYSTEM    = UTC
MEAN_ELEMENT_THEORY = SGP/SGP4

EPOCH          = 2026-01-11T11:04:21.301824
MEAN_MOTION    = 14.24679843
ECCENTRICITY   = .0037371
INCLINATION    = 99.9980
RA_OF_ASC_NODE = 274.7038
ARG_OF_PERICENTER = 202.0495
MEAN_ANOMALY   = 157.9073

EPHEMERIS_TYPE = 0
CLASSIFICATION_TYPE = U
NORAD_CAT_ID   = 82873
ELEMENT_SET_NO = 999
REV_AT_EPOCH   = 62546
BSTAR          = .15957E-2
MEAN_MOTION_DOT = .3686E-4
MEAN_MOTION_DDOT = 0

CCSDS_OMM_VERS = 2.0
CREATION_DATE  = 
ORIGINATOR     = 

OBJECT_NAME    = UNKNOWN
OBJECT_ID      = 
CENTER_NAME    = EARTH
REF_FRAME      = TEME
TIME_SYSTEM    = UTC
MEAN_ELEMENT_THEORY = SGP/SGP4

EPOCH          = 2026-01-08T04:49:08.345856
MEAN_MOTION    = 14.15206121
ECCENTRICITY   = .0377481
INCLINATION    = 98.6776
RA_OF_ASC_NODE = 355.8998
ARG_OF_PERICENTER = 206.9876
MEAN_ANOMALY   = 151.1221

EPHEMERIS_TYPE = 0
CLASSIFICATION_TYPE = U
NORAD_CAT_ID   = 82875
ELEMENT_SET_NO = 999
REV_AT_EPOCH   = 54821
BSTAR          = .14601E-3
MEAN_MOTION_DOT = .511E-5
MEAN_MOTION_DDOT = 0

CCSDS_OMM_VERS = 2.0
CREATION_DATE  = 
ORIGINATOR     = 

OBJECT_NAME    = UNKNOWN
OBJECT_ID      = 
CENTER_NAME    = EARTH
REF_FRAME      = TEME
TIME_SYSTEM    = UTC
MEAN_ELEMENT_THEORY = SGP/SGP4

EPOCH          = 2026-01-08T13:54:33.587424
MEAN_MOTION    = 14.32109933
ECCENTRICITY   = .0022925
INCLINATION    = 98.9621
RA_OF_ASC_NODE = 129.5405
ARG_OF_PERICENTER = 319.1817
MEAN_ANOMALY   = 40.7648

EPHEMERIS_TYPE = 0
CLASSIFICATION_TYPE = U
NORAD_CAT_ID   = 82893
ELEMENT_SET_NO = 999
REV_AT_EPOCH   = 42781
BSTAR          = .3428E-2
MEAN_MOTION_DOT = .9209E-4
MEAN_MOTION_DDOT = 0

CCSDS_OMM_VERS = 2.0
CREATION_DATE  = 
ORIGINATOR     = 

OBJECT_NAME    = UNKNOWN
OBJECT_ID      = 
CENTER_NAME    = EARTH
REF_FRAME      = TEME
TIME_SYSTEM    = UTC
MEAN_ELEMENT_THEORY = SGP/SGP4

EPOCH          = 2026-01-10T22:55:26.186880
MEAN_MOTION    = 13.27922751
ECCENTRICITY   = .0774928
INCLINATION    = 65.8365
RA_OF_ASC_NODE = 106.9456
ARG_OF_PERICENTER = 255.6067
MEAN_ANOMALY   = 95.7818

EPHEMERIS_TYPE = 0
CLASSIFICATION_TYPE = U
NORAD_CAT_ID   = 82912
ELEMENT_SET_NO = 999
REV_AT_EPOCH   = 58320
BSTAR          = .17308E-2
MEAN_MOTION_DOT = .4203E-4
MEAN_MOTION_DDOT = 0

CCSDS_OMM_VERS = 2.0
CREATION_DATE  = 
ORIGINATOR     = 

OBJECT_NAME    = UNKNOWN
OBJECT_ID      = 
CENTER_NAME    = EARTH
REF_FRAME      = TEME
TIME_SYSTEM    = UTC
MEAN_ELEMENT_THEORY = SGP/SGP4

EPOCH          = 2026-01-11T09:19:17.645088
MEAN_MOTION    = 13.24114640
ECCENTRICITY   = .0412687
INCLINATION    = 99.8560
RA_OF_ASC_NODE = 169.3684
ARG_OF_PERICENTER = 291.5999
MEAN_ANOMALY   = 64.1635

EPHEMERIS_TYPE = 0
CLASSIFICATION_TYPE = U
NORAD_CAT_ID   = 82961
ELEMENT_SET_NO = 999
REV_AT_EPOCH   = 55963
BSTAR          = .22057E-1
MEAN_MOTION_DOT = .14839E-3
MEAN_MOTION_DDOT = 0

CCSDS_OMM_VERS = 2.0
CREATION_DATE  = 
ORIGINATOR     = 

OBJECT_NAME    = UNKNOWN
OBJECT_ID      = 
CENTER_NAME    = EARTH
REF_FRAME      = TEME
TIME_SYSTEM    = UTC
MEAN_ELEMENT_THEORY = SGP/SGP4

EPOCH          = 2025-12-26T10:35:34.270368
MEAN_MOTION    = 13.60034141
ECCENTRICITY   = .0002424
INCLINATION    = 100.1151
RA_OF_ASC_NODE = 80.4159
ARG_OF_PERICENTER = 181.2549
MEAN_ANOMALY   = 178.8584

EPHEMERIS_TYPE = 0
CLASSIFICATION_TYPE = U
NORAD_CAT_ID   = 82965
ELEMENT_SET_NO = 999
REV_AT_EPOCH   = 52631
BSTAR          = .15259E-2
MEAN_MOTION_DOT = .1091E-4
MEAN_MOTION_DDOT = 0

CCSDS_OMM_VERS = 2.0
CREATION_DATE  = 
ORIGINATOR     = 

OBJECT_NAME    = UNKNOWN
OBJECT_ID      = 
CENTER_NAME    = EARTH
REF_FRAME      = TEME
TIME_SYSTEM    = UTC
MEAN_ELEMENT_THEORY = SGP/SGP4

EPOCH          = 2025-12-25T21:37:02.278848
MEAN_MOTION    = 0.99112280
ECCENTRICITY   = .0123617
INCLINATION    = 6.1512
RA_OF_ASC_NODE = 290.5042
ARG_OF_PERICENTER = 251.9916
MEAN_ANOMALY   = 284.4045

EPHEMERIS_TYPE = 0
CLASSIFICATION_TYPE = U
NORAD_CAT_ID   = 83903
ELEMENT_SET_NO = 999
REV_AT_EPOCH   = 4379
BSTAR          = 0
MEAN_MOTION_DOT = .121E-5
MEAN_MOTION_DDOT = 0

CCSDS_OMM_VERS = 2.0
CREATION_DATE  = 
ORIGINATOR     = 

OBJECT_NAME    = UNKNOWN
OBJECT_ID      = 
CENTER_NAME    = EARTH
REF_FRAME      = TEME
TIME_SYSTEM    = UTC
MEAN_ELEMENT_THEORY = SGP/SGP4

EPOCH          = 2026-01-08T01:44:00.541536
MEAN_MOTION    = 5.32455568
ECCENTRICITY   = .5069813
INCLINATION    = 18.2925
RA_OF_ASC_NODE = 189.2575
ARG_OF_PERICENTER = 199.8060
MEAN_ANOMALY   = 129.8621

EPHEMERIS_TYPE = 0
CLASSIFICATION_TYPE = U
NORAD_CAT_ID   = 83970
ELEMENT_SET_NO = 999
REV_AT_EPOCH   = 19761
BSTAR          = .67703E-2
MEAN_MOTION_DOT = .6416E-4
MEAN_MOTION_DDOT = 0

